{
  "norad_id": 63565,
  "name": "STARLINK-32687",
  "history": [
    {
      "epoch": "2026-03-28T21:31:31.022112Z",
      "apogee_km": 484.9110566455256,
      "perigee_km": 480.91929648919904,
      "latitude_deg": 9.667446578619783e-06,
      "longitude_deg": 13.049803586183772,
      "height_km": 482.39860550913755,
      "semi_major_axis_km": 6861.052176567362,
      "eccentricity": 0.0002909,
      "inclination_deg": 43.0,
      "raan_deg": 162.2398,
      "arg_perigee_deg": 278.4818,
      "mean_anomaly_deg": 81.5704,
      "mean_motion_rev_day": 15.27624725
    },
    {
      "epoch": "2026-03-28T21:31:31.022976Z",
      "apogee_km": 484.9113310876128,
      "perigee_km": 480.91902204711187,
      "latitude_deg": 1.2778495744123804e-05,
      "longitude_deg": 13.049803294081071,
      "height_km": 482.3985650361827,
      "semi_major_axis_km": 6861.052176567362,
      "eccentricity": 0.00029094,
      "inclination_deg": 43.0,
      "raan_deg": 162.2398,
      "arg_perigee_deg": 278.4818,
      "mean_anomaly_deg": 81.5704,
      "mean_motion_rev_day": 15.27624725
    },
    {
      "epoch": "2026-03-30T14:19:36.220800Z",
      "apogee_km": 483.88537062225896,
      "perigee_km": 482.12521317869414,
      "latitude_deg": -3.990576688986341e-06,
      "longitude_deg": 109.75137321206992,
      "height_km": 482.6214318886155,
      "semi_major_axis_km": 6861.142291900476,
      "eccentricity": 0.00012827,
      "inclination_deg": 43.0006,
      "raan_deg": 152.6387,
      "arg_perigee_deg": 280.5101,
      "mean_anomaly_deg": 79.5606,
      "mean_motion_rev_day": 15.27594629
    },
    {
      "epoch": "2026-03-30T20:36:13.910112Z",
      "apogee_km": 483.6588607636777,
      "perigee_km": 482.4016204785057,
      "latitude_deg": 3.0012959339593323e-05,
      "longitude_deg": 13.85797816723262,
      "height_km": 482.6141870063823,
      "semi_major_axis_km": 6861.167240621091,
      "eccentricity": 9.162e-05,
      "inclination_deg": 42.9981,
      "raan_deg": 151.1601,
      "arg_perigee_deg": 287.7947,
      "mean_anomaly_deg": 72.2805,
      "mean_motion_rev_day": 15.27586297
    },
    {
      "epoch": "2026-03-31T12:17:47.472000Z",
      "apogee_km": 483.81813926403174,
      "perigee_km": 482.170232775773,
      "latitude_deg": 5.638463002271579e-05,
      "longitude_deg": 134.13379148494744,
      "height_km": 482.81115728499555,
      "semi_major_axis_km": 6861.131186019902,
      "eccentricity": 0.00012009,
      "inclination_deg": 43.001,
      "raan_deg": 147.4702,
      "arg_perigee_deg": 267.1937,
      "mean_anomaly_deg": 92.8778,
      "mean_motion_rev_day": 15.27598338
    },
    {
      "epoch": "2026-04-01T19:40:55.616160Z",
      "apogee_km": 483.7077340790802,
      "perigee_km": 482.3066884311411,
      "latitude_deg": 1.4337525926382131e-05,
      "longitude_deg": 14.6719537331825,
      "height_km": 482.54011984435004,
      "semi_major_axis_km": 6861.14421125511,
      "eccentricity": 0.0001021,
      "inclination_deg": 42.9976,
      "raan_deg": 140.0813,
      "arg_perigee_deg": 290.3123,
      "mean_anomaly_deg": 69.7619,
      "mean_motion_rev_day": 15.27593988
    },
    {
      "epoch": "2026-04-02T19:13:15.895488Z",
      "apogee_km": 483.26536127333475,
      "perigee_km": 482.61218685964286,
      "latitude_deg": -2.324823031621156e-05,
      "longitude_deg": 15.082006223977329,
      "height_km": 482.619364455708,
      "semi_major_axis_km": 6861.0757740664885,
      "eccentricity": 4.76e-05,
      "inclination_deg": 42.9964,
      "raan_deg": 134.5426,
      "arg_perigee_deg": 286.889,
      "mean_anomaly_deg": 73.1909,
      "mean_motion_rev_day": 15.27616844
    },
    {
      "epoch": "2026-04-03T03:04:02.598240Z",
      "apogee_km": 483.0147080110037,
      "perigee_km": 482.88503346914604,
      "latitude_deg": -2.9932622450380587e-05,
      "longitude_deg": -104.7801319258543,
      "height_km": 482.7479897344618,
      "semi_major_axis_km": 6861.086870740074,
      "eccentricity": 9.45e-06,
      "inclination_deg": 42.9969,
      "raan_deg": 132.6973,
      "arg_perigee_deg": 249.2518,
      "mean_anomaly_deg": 110.8323,
      "mean_motion_rev_day": 15.27613138
    },
    {
      "epoch": "2026-04-04T10:27:11.161440Z",
      "apogee_km": 483.9499531185638,
      "perigee_km": 482.2870592340869,
      "latitude_deg": -2.7100273753134485e-05,
      "longitude_deg": 135.75912522738204,
      "height_km": 482.6212825908313,
      "semi_major_axis_km": 6861.255506176325,
      "eccentricity": 0.00012118,
      "inclination_deg": 42.9992,
      "raan_deg": 125.3112,
      "arg_perigee_deg": 289.2167,
      "mean_anomaly_deg": 70.8553,
      "mean_motion_rev_day": 15.2755682
    },
    {
      "epoch": "2026-04-05T03:42:55.215936Z",
      "apogee_km": 484.5116629944996,
      "perigee_km": 481.89941266349797,
      "latitude_deg": 3.029141224620174e-05,
      "longitude_deg": -127.94710967557737,
      "height_km": 482.6271895840063,
      "semi_major_axis_km": 6861.3425378289985,
      "eccentricity": 0.00019036,
      "inclination_deg": 42.9978,
      "raan_deg": 121.2474,
      "arg_perigee_deg": 285.7804,
      "mean_anomaly_deg": 74.2838,
      "mean_motion_rev_day": 15.27527756
    },
    {
      "epoch": "2026-04-05T17:50:17.027232Z",
      "apogee_km": 483.8748564215739,
      "perigee_km": 481.634089266543,
      "latitude_deg": -3.5190253918964e-05,
      "longitude_deg": 16.30993931439286,
      "height_km": 482.2058421457753,
      "semi_major_axis_km": 6860.891472844058,
      "eccentricity": 0.0001633,
      "inclination_deg": 43.0,
      "raan_deg": 117.9254,
      "arg_perigee_deg": 286.8897,
      "mean_anomaly_deg": 73.1775,
      "mean_motion_rev_day": 15.27678398
    },
    {
      "epoch": "2026-04-06T01:41:03.736032Z",
      "apogee_km": 483.8453277416229,
      "perigee_km": 482.23281414143,
      "latitude_deg": -6.940934470689989e-06,
      "longitude_deg": -103.55218761269141,
      "height_km": 483.1744615973974,
      "semi_major_axis_km": 6861.176070941527,
      "eccentricity": 0.00011751,
      "inclination_deg": 43.0002,
      "raan_deg": 116.0801,
      "arg_perigee_deg": 243.5585,
      "mean_anomaly_deg": 116.5146,
      "mean_motion_rev_day": 15.27583348
    },
    {
      "epoch": "2026-04-07T02:47:35.618208Z",
      "apogee_km": 483.89330886221796,
      "perigee_km": 482.2128661859806,
      "latitude_deg": -2.3319521756740553e-05,
      "longitude_deg": -127.12313420616616,
      "height_km": 483.16922894931656,
      "semi_major_axis_km": 6861.190087524099,
      "eccentricity": 0.00012246,
      "inclination_deg": 43.0032,
      "raan_deg": 110.1732,
      "arg_perigee_deg": 246.1778,
      "mean_anomaly_deg": 113.8945,
      "mean_motion_rev_day": 15.27578667
    },
    {
      "epoch": "2026-04-08T10:10:43.765824Z",
      "apogee_km": 484.15353775345557,
      "perigee_km": 481.9383362304188,
      "latitude_deg": 2.3202209154836495e-05,
      "longitude_deg": 113.41660245345201,
      "height_km": 482.79710390863255,
      "semi_major_axis_km": 6861.182936991937,
      "eccentricity": 0.00016143,
      "inclination_deg": 43.0004,
      "raan_deg": 102.7858,
      "arg_perigee_deg": 271.3324,
      "mean_anomaly_deg": 88.7343,
      "mean_motion_rev_day": 15.27581055
    },
    {
      "epoch": "2026-04-09T08:08:54.944448Z",
      "apogee_km": 484.2181383760908,
      "perigee_km": 481.79821247271866,
      "latitude_deg": -3.3509847318976613e-05,
      "longitude_deg": 137.7981951400438,
      "height_km": 482.951809636182,
      "semi_major_axis_km": 6861.145175424404,
      "eccentricity": 0.00017635,
      "inclination_deg": 43.0009,
      "raan_deg": 97.6163,
      "arg_perigee_deg": 262.087,
      "mean_anomaly_deg": 97.9781,
      "mean_motion_rev_day": 15.27593666
    },
    {
      "epoch": "2026-04-10T07:41:15.800928Z",
      "apogee_km": 484.0633047066776,
      "perigee_km": 481.9706527431672,
      "latitude_deg": -1.3919048337874067e-06,
      "longitude_deg": 138.2075071186874,
      "height_km": 482.8407208324209,
      "semi_major_axis_km": 6861.153978724922,
      "eccentricity": 0.0001525,
      "inclination_deg": 42.9992,
      "raan_deg": 92.0792,
      "arg_perigee_deg": 267.4235,
      "mean_anomaly_deg": 92.6442,
      "mean_motion_rev_day": 15.27590726
    },
    {
      "epoch": "2026-04-11T05:39:27.160992Z",
      "apogee_km": 484.08335154190536,
      "perigee_km": 481.9813636975041,
      "latitude_deg": 6.179019191979236e-05,
      "longitude_deg": 162.5872703718352,
      "height_km": 482.7874702481271,
      "semi_major_axis_km": 6861.169357619704,
      "eccentricity": 0.00015318,
      "inclination_deg": 43.0,
      "raan_deg": 86.9085,
      "arg_perigee_deg": 271.1827,
      "mean_anomaly_deg": 88.885,
      "mean_motion_rev_day": 15.2758559
    }
  ]
}